{
  "type": "FeatureCollection",
  "features": [
    {
      "type": "Feature",
      "properties": {
        "norad_id": 29268,
        "name": "ARIRANG-2 (KOMPSAT-2)",
        "group": "resource",
        "lat": -40.64260871680022,
        "lon": -169.9941072704609,
        "alt_km": 677.9716852421134,
        "timestamp": "2025-12-21T03:56:50.511144+00:00",
        "meta_object_name": "ARIRANG-2 (KOMPSAT-2)",
        "meta_object_id": "2006-031A",
        "meta_epoch": "2025-12-20T20:28:01.811136",
        "meta_mean_motion": 14.64500819,
        "meta_eccentricity": 0.0013165,
        "meta_inclination": 97.8253,
        "meta_ra_of_asc_node": 182.93,
        "meta_arg_of_pericenter": 281.3227,
        "meta_mean_anomaly": 195.3488,
        "meta_ephemeris_type": 0,
        "meta_classification_type": "U",
        "meta_norad_cat_id": 29268,
        "meta_element_set_no": 999,
        "meta_rev_at_epoch": 3537,
        "meta_bstar": 8.7683e-05,
        "meta_mean_motion_dot": 4.2e-06,
        "meta_mean_motion_ddot": 0,
        "tle_line1": "1 29268U 06031A   25354.85279874  .00000420  00000+0  87683-4 0  9997",
        "tle_line2": "2 29268  97.8253 182.9300 0013165 281.3227 195.3488 14.64500819 35371"
      },
      "geometry": {
        "type": "Point",
        "coordinates": [
          -169.9941072704609,
          -40.64260871680022
        ]
      }
    },
    {
      "type": "Feature",
      "properties": {
        "norad_id": 29709,
        "name": "LAPAN-TUBSAT",
        "group": "resource",
        "lat": 4.576003899679403,
        "lon": 166.14909283818739,
        "alt_km": 619.3140779577352,
        "timestamp": "2025-12-21T03:56:50.511153+00:00",
        "meta_object_name": "LAPAN-TUBSAT",
        "meta_object_id": "2007-001A",
        "meta_epoch": "2025-12-20T20:41:47.294016",
        "meta_mean_motion": 14.85681309,
        "meta_eccentricity": 0.0013344,
        "meta_inclination": 98.1252,
        "meta_ra_of_asc_node": 345.1856,
        "meta_arg_of_pericenter": 50.3431,
        "meta_mean_anomaly": 309.8958,
        "meta_ephemeris_type": 0,
        "meta_classification_type": "U",
        "meta_norad_cat_id": 29709,
        "meta_element_set_no": 999,
        "meta_rev_at_epoch": 2467,
        "meta_bstar": 7.4335e-05,
        "meta_mean_motion_dot": 5.88e-06,
        "meta_mean_motion_ddot": 0,
        "tle_line1": "1 29709U 07001A   25354.86235294  .00000588  00000+0  74335-4 0  9999",
        "tle_line2": "2 29709  98.1252 345.1856 0013344  50.3431 309.8958 14.85681309 24675"
      },
      "geometry": {
        "type": "Point",
        "coordinates": [
          166.14909283818739,
          4.576003899679403
        ]
      }
    },
    {
      "type": "Feature",
      "properties": {
        "norad_id": 31113,
        "name": "HAIYANG-1B",
        "group": "resource",
        "lat": -23.29244611344234,
        "lon": 155.477490068889,
        "alt_km": 803.7352352257958,
        "timestamp": "2025-12-21T03:56:50.511163+00:00",
        "meta_object_name": "HAIYANG-1B",
        "meta_object_id": "2007-010A",
        "meta_epoch": "2025-12-20T11:53:46.556736",
        "meta_mean_motion": 14.3096749,
        "meta_eccentricity": 0.0013883,
        "meta_inclination": 98.3321,
        "meta_ra_of_asc_node": 338.4536,
        "meta_arg_of_pericenter": 15.9883,
        "meta_mean_anomaly": 344.1736,
        "meta_ephemeris_type": 0,
        "meta_classification_type": "U",
        "meta_norad_cat_id": 31113,
        "meta_element_set_no": 999,
        "meta_rev_at_epoch": 97507,
        "meta_bstar": 4.2865318e-05,
        "meta_mean_motion_dot": 7.1e-07,
        "meta_mean_motion_ddot": 0,
        "tle_line1": "1 31113U 07010A   25354.49567774  .00000071  00000+0  42865-4 0  9991",
        "tle_line2": "2 31113  98.3321 338.4536 0013883  15.9883 344.1736 14.30967490975075"
      },
      "geometry": {
        "type": "Point",
        "coordinates": [
          155.477490068889,
          -23.29244611344234
        ]
      }
    },
    {
      "type": "Feature",
      "properties": {
        "norad_id": 31598,
        "name": "COSMO-SKYMED 1",
        "group": "resource",
        "lat": 75.25358367661562,
        "lon": 148.85338490326248,
        "alt_km": 571.5783242144407,
        "timestamp": "2025-12-21T03:56:50.511172+00:00",
        "meta_object_name": "COSMO-SKYMED 1",
        "meta_object_id": "2007-023A",
        "meta_epoch": "2025-12-20T19:34:29.847072",
        "meta_mean_motion": 14.95823502,
        "meta_eccentricity": 0.0001566,
        "meta_inclination": 97.8837,
        "meta_ra_of_asc_node": 180.2679,
        "meta_arg_of_pericenter": 83.0949,
        "meta_mean_anomaly": 277.0449,
        "meta_ephemeris_type": 0,
        "meta_classification_type": "U",
        "meta_norad_cat_id": 31598,
        "meta_element_set_no": 999,
        "meta_rev_at_epoch": 311,
        "meta_bstar": 0.00024537,
        "meta_mean_motion_dot": 2.68e-05,
        "meta_mean_motion_ddot": 0,
        "tle_line1": "1 31598U 07023A   25354.81562323  .00002680  00000+0  24537-3 0  9996",
        "tle_line2": "2 31598  97.8837 180.2679 0001566  83.0949 277.0449 14.95823502  3111"
      },
      "geometry": {
        "type": "Point",
        "coordinates": [
          148.85338490326248,
          75.25358367661562
        ]
      }
    },
    {
      "type": "Feature",
      "properties": {
        "norad_id": 31698,
        "name": "TERRASAR-X",
        "group": "resource",
        "lat": 77.7981902816381,
        "lon": -36.78905838466231,
        "alt_km": 499.8473095857007,
        "timestamp": "2025-12-21T03:56:50.511182+00:00",
        "meta_object_name": "TERRASAR-X",
        "meta_object_id": "2007-026A",
        "meta_epoch": "2025-12-20T11:47:12.844032",
        "meta_mean_motion": 15.19153914,
        "meta_eccentricity": 0.0001874,
        "meta_inclination": 97.4453,
        "meta_ra_of_asc_node": 359.7585,
        "meta_arg_of_pericenter": 92.6145,
        "meta_mean_anomaly": 267.5304,
        "meta_ephemeris_type": 0,
        "meta_classification_type": "U",
        "meta_norad_cat_id": 31698,
        "meta_element_set_no": 999,
        "meta_rev_at_epoch": 2609,
        "meta_bstar": 3.1273e-05,
        "meta_mean_motion_dot": 5.9e-06,
        "meta_mean_motion_ddot": 0,
        "tle_line1": "1 31698U 07026A   25354.49112088  .00000590  00000+0  31273-4 0  9997",
        "tle_line2": "2 31698  97.4453 359.7585 0001874  92.6145 267.5304 15.19153914 26093"
      },
      "geometry": {
        "type": "Point",
        "coordinates": [
          -36.78905838466231,
          77.7981902816381
        ]
      }
    },
    {
      "type": "Feature",
      "properties": {
        "norad_id": 32060,
        "name": "WORLDVIEW-1 (WV-1)",
        "group": "resource",
        "lat": -65.61043944043955,
        "lon": -84.09159665852137,
        "alt_km": 502.64434721736507,
        "timestamp": "2025-12-21T03:56:50.511197+00:00",
        "meta_object_name": "WORLDVIEW-1 (WV-1)",
        "meta_object_id": "2007-041A",
        "meta_epoch": "2025-12-20T18:59:18.404736",
        "meta_mean_motion": 15.23882673,
        "meta_eccentricity": 0.000347,
        "meta_inclination": 97.3825,
        "meta_ra_of_asc_node": 112.1576,
        "meta_arg_of_pericenter": 9.726,
        "meta_mean_anomaly": 350.4044,
        "meta_ephemeris_type": 0,
        "meta_classification_type": "U",
        "meta_norad_cat_id": 32060,
        "meta_element_set_no": 999,
        "meta_rev_at_epoch": 1570,
        "meta_bstar": 0.00023845,
        "meta_mean_motion_dot": 5.686e-05,
        "meta_mean_motion_ddot": 0,
        "tle_line1": "1 32060U 07041A   25354.79118524  .00005686  00000+0  23845-3 0  9998",
        "tle_line2": "2 32060  97.3825 112.1576 0003470   9.7260 350.4044 15.23882673 15706"
      },
      "geometry": {
        "type": "Point",
        "coordinates": [
          -84.09159665852137,
          -65.61043944043955
        ]
      }
    },
    {
      "type": "Feature",
      "properties": {
        "norad_id": 32289,
        "name": "YAOGAN-3",
        "group": "resource",
        "lat": 70.7262355953472,
        "lon": -135.09459145490484,
        "alt_km": 590.7937865145095,
        "timestamp": "2025-12-21T03:56:50.511212+00:00",
        "meta_object_name": "YAOGAN-3",
        "meta_object_id": "2007-055A",
        "meta_epoch": "2025-12-20T21:01:07.360032",
        "meta_mean_motion": 14.89890855,
        "meta_eccentricity": 0.0001122,
        "meta_inclination": 97.8355,
        "meta_ra_of_asc_node": 21.4276,
        "meta_arg_of_pericenter": 74.3252,
        "meta_mean_anomaly": 285.8089,
        "meta_ephemeris_type": 0,
        "meta_classification_type": "U",
        "meta_norad_cat_id": 32289,
        "meta_element_set_no": 999,
        "meta_rev_at_epoch": 97930,
        "meta_bstar": 0.00010902,
        "meta_mean_motion_dot": 9.93e-06,
        "meta_mean_motion_ddot": 0,
        "tle_line1": "1 32289U 07055A   25354.87577963  .00000993  00000+0  10902-3 0  9997",
        "tle_line2": "2 32289  97.8355  21.4276 0001122  74.3252 285.8089 14.89890855979309"
      },
      "geometry": {
        "type": "Point",
        "coordinates": [
          -135.09459145490484,
          70.7262355953472
        ]
      }
    }
  ]
}